[Satellite]
VERSION=1.1
NAME=APRIZESAT 1
NICKNAME=APRIZESAT 1
TLE1=1 28372U 04025G   17186.10072798  .00000007  00000-0  13364-4 0  9998
TLE2=2 28372  98.2556 133.7171 0047250  36.6474 323.7936 14.49499696688163
